name,address,phone,website,GoogleMaps,postalCode
Flinton library,"3641 Flinton Rd, Flinton, ON K0H 1P0, Canada",(613) 336-1091,http://addingtonhighlandspubliclibrary.ca/,https://maps.google.com/?cid=9637002617853049901,K0H 1P0
Denbigh Public Library,"31 Central St, Denbigh, ON K0H 1L0, Canada",(613) 333-1426,http://www.addingtonhighlandspubliclibrary.ca/,https://maps.google.com/?cid=6991938564910807422,K0H 1L0
Essa Public Library: Angus Branch,"8505 County Rd 10 #1, Angus, ON L0M 1B1, Canada",(705) 424-6531,http://www.essa.library.on.ca/,https://maps.google.com/?cid=7494024751061174888,L0M 1B1
Essa Public Library: Thornton Branch,"34 Robert St, Thornton, ON L0L 2N0, Canada",(705) 458-2549,http://www.essa.library.on.ca/,https://maps.google.com/?cid=11041992917491799358,L0L 2N0
New Tecumseth Public Libraries,"17 Victoria St E, Alliston, ON L9R 1T3, Canada",(705) 435-5651,http://www.ntpl.ca/,https://maps.google.com/?cid=18045226131436021288,L9R 1T3
Admaston-Bromley Public Library,"5346 ON-60, Douglas, ON K0J 1S0, Canada",(613) 649-2576,http://admastonbromleylibrary.com/,https://maps.google.com/?cid=7166469743187077731,K0J 1S0
Ajax Public Library - Main Branch,"2H8, 55 Harwood Ave S, Ajax, ON, Canada",(905) 683-4000,http://www.ajaxlibrary.ca/?q=node/1,https://maps.google.com/?cid=8063899077420382955,/A
Akwesasne Cultural Center Museum,"321 NY-37, Hogansburg, NY 13655, United States",(518) 358-2461,http://www.akwesasneculturalcenter.org/,https://maps.google.com/?cid=8015414824932127232,/A
Akwesasne Reserve No. 15,"Akwesasne Reserve No. 15, Hogansburg, QC, Canada",,,"https://maps.google.com/?q=Akwesasne+Reserve+No.+15,+Hogansburg,+Quebec,+Canada&ftid=0x4ccc04f92d3d3ee5:0x4978282f9ac5f409",/A
Mohawk Council of Akwesasne,"29 Third St, Akwesasne, Quebec H0M 1A0, Canada",(613) 575-2348,http://www.akwesasne.ca/,https://maps.google.com/?cid=354578229901332924,/A
Roseneath Public Library,"9059 45, Roseneath, ON K0K 2X0, Canada",(905) 352-3876,http://www.alnwickhaldimand.ca/content/library-hours-and-locations,https://maps.google.com/?cid=16761412530571004180,K0K 2X0
Algonquins of Pikwàkanagàn First Nation,"1657A Mishomis Inamo, Golden Lake, ON K0J 1X0, Canada",(613) 625-2800,http://www.algonquinsofpikwakanagan.com/,https://maps.google.com/?cid=5089052428308473290,K0J 1X0
Centreton Public Library,"2363 Northumberland County Rd 23, Grafton, ON K0K 2G0, Canada",(905) 349-2976,http://www.alnwickhaldimand.ca/content/library-hours-and-locations,https://maps.google.com/?cid=5070383928341254467,K0K 2G0
Alfred Public Library,"330 St-Philippe St, Alfred, ON K0B 1A0, Canada",(613) 679-2663,https://www.alfred-plantagenet.ca/,https://maps.google.com/?cid=8165511286701542394,K0B 1A0
Armstrong Township Public Library,"32 10th St E, Earlton, ON P0J 1E0, Canada",(705) 563-2717,http://www.olsn.ca/armstrong/,https://maps.google.com/?cid=17960419973751040948,P0J 1E0
Arnprior Public Library,"21 Madawaska St, Arnprior, ON K7S 1R6, Canada",(613) 623-2279,http://www.arnpriorlibrary.ca/,https://maps.google.com/?cid=11113606406668660537,K7S 1R6
Norwood Public Library,"2363 County Rd 45, Norwood, ON K0L 2V0, Canada",(705) 639-2228,https://anpl.org/,https://maps.google.com/?cid=6788814884896265913,K0L 2V0
Wikwemikong Public Library,"Henry St, Wikwemikong, ON P0P 2J0, Canada",(705) 859-2692,http://www.olsn.ca/wpl/,https://maps.google.com/?cid=16306027538369565128,P0P 2J0
Athens Public Library,"5 Central St, Athens, ON K0E 1B0, Canada",(613) 924-2048,https://www.athenslibrary.ca/,https://maps.google.com/?cid=9409043023385185398,K0E 1B0
Atikokan Public Library,"Atikokan, ON P0T 1C0, Canada",(807) 597-4406,https://aplibrary.org/,https://maps.google.com/?cid=4551280747471185745,P0T 1C0
Augusta Township Public Library,"4500 County Rd 15, Brockville, ON K6V 5T2, Canada",(613) 926-2449,https://augustalibrary.com/,https://maps.google.com/?cid=5245428913287690970,K6V 5T2
Little Current Public Library,"50 MEREDITH, Little Current, ON P0P 1K0, Canada",(705) 368-2444,http://www.olsn.ca/nemi/,https://maps.google.com/?cid=17170236786729550111,P0P 1K0
Aurora Public Library,"15145 Yonge St, Aurora, ON L4G 1M1, Canada",(905) 727-9494,http://www.aurorapl.ca/,https://maps.google.com/?cid=7613467345647054325,L4G 1M1
North Hastings Public Library,"14 Flint Ave, Bancroft, ON K0L 1C0, Canada",(613) 332-3380,http://www.northhastingslibrary.ca/,https://maps.google.com/?cid=284374017152428848,K0L 1C0
Barrie Public Library Painswick,"48 Dean Ave, Barrie, ON L4N 0C2, Canada",(705) 728-1010,http://barrielibrary.ca/,https://maps.google.com/?cid=2475153820204330983,L4N 0C2
Barrie Public Library - Downtown Branch,"60 Worsley St, Barrie, ON L4M 1L6, Canada",(705) 728-1010,https://www.barrielibrary.ca/,https://maps.google.com/?cid=5614707331287140793,L4M 1L6
Barry's Bay Public Library,"19474 Opeongo Line, Barry's Bay, ON K0J 1B0, Canada",(613) 756-2000,http://www.madawaskavalleylibrary.ca/,https://maps.google.com/?cid=13637970080520077082,K0J 1B0
Belleville Public Library and John M. Parrott Art Gallery,"254 Pinnacle St, Belleville, ON K8N 3B1, Canada",(613) 968-6731,http://www.bellevillelibrary.ca/,https://maps.google.com/?cid=11680373252848067146,K8N 3B1
Bkejwanong First Nation Public Library,"136 Tecumseh Rd, Wallaceburg, ON N8A 4K9, Canada",(519) 627-7034,,https://maps.google.com/?cid=8678409647316469629,N8A 4K9
Matheson Public Library,"Matheson, ON P0K 1N0, Canada",(705) 273-2760,http://www.olsn.ca/blackriver-matheson,https://maps.google.com/?cid=2064083895867240957,P0K 1N0
Blind River Public Library,"8 Woodward Ave, Blind River, ON, Canada",(705) 356-7616,http://www.olsn.ca/blindriverlibrary/,https://maps.google.com/?cid=17588866045778943836,/A
"L.E. Shore Memorial Library, The Blue Mountains Public Library","173 Bruce St S, Thornbury, ON N0H 2P0, Canada",(519) 599-3681,http://www.thebluemountainslibrary.ca/,https://maps.google.com/?cid=6093275393773148143,N0H 2P0
Bonfield Public Library,"365 ON-531, Bonfield, ON P0H 1E0, Canada",(705) 776-2396,http://bonfield.olsn.ca/,https://maps.google.com/?cid=1739263993358485566,P0H 1E0
Bonnechere Union Public Library,"74 Maple St, Eganville, ON K0J 1T0, Canada",(613) 628-2400,http://www.bonnechereupl.com/,https://maps.google.com/?cid=7964334615751584873,K0J 1T0
Bracebridge Public Library,"94 Manitoba St, Bracebridge, ON P1L 2B5, Canada",(705) 645-4171,http://www.bracebridgelibrary.ca/,https://maps.google.com/?cid=3721323981274798639,P1L 2B5
Bradford West Gwillimbury Public Library,"425 Holland St W, Bradford, ON L3Z 0J2, Canada",(905) 775-3328,http://www.bradford.library.on.ca/,https://maps.google.com/?cid=10101323441940033826,L3Z 0J2
Brampton Library - Chinguacousy Branch,"150 Central Park Dr, Brampton, ON L6T 1B4, Canada",(905) 793-4636,https://www.bramptonlibrary.ca/,https://maps.google.com/?cid=9614510539807418926,L6T 1B4
St. George Branch--County of Brant Public Library,"78 Main St N, Saint George, ON N0E 1N0, Canada",(519) 448-1300,http://www.brantlibrary.ca/,https://maps.google.com/?cid=3590606906915328371,N0E 1N0
Brantford Public Library,"173 Colborne St, Brantford, ON N3T 2G8, Canada",(519) 756-2220,http://www.brantfordlibrary.ca/,https://maps.google.com/?cid=4512273404513346414,N3T 2G8
Brantford Public Library - St. Paul Branch,"441 St Paul Ave, Brantford, ON N3R 4N8, Canada",(519) 756-2220,https://brantford.library.on.ca/,https://maps.google.com/?cid=5290949213764902037,N3R 4N8
Brighton Public Library,"35 Alice St, Brighton, ON K0K 1H0, Canada",(613) 475-2511,http://www.brighton.library.on.ca/,https://maps.google.com/?cid=4327517990196835826,K0K 1H0
Brock Library,"38 Laidlaw St S, Cannington, ON L0E 1E0, Canada",(705) 432-2867,http://www.brocklibraries.ca,https://maps.google.com/?cid=17734404058572570378,L0E 1E0
Brockville Public Library,"23 Buell St, Brockville, ON K6V 5T7, Canada",(613) 342-3936,http://brockvillelibrary.ca/,https://maps.google.com/?cid=15771477956685541188,K6V 5T7
Bruce County Public Library Sauble Branch,"27 Community Centre Dr, Sauble Beach, ON N0H 2G0, Canada",(519) 422-1283,https://library.brucecounty.on.ca/,https://maps.google.com/?cid=11621504184179907411,N0H 2G0
Bruce Mines & Plummer Additional Union Public Library,"33 Desbarat St, Bruce Mines, ON P0R 1C0, Canada",(705) 785-3370,http://www.bruceminesandplummerlibrary.ca/,https://maps.google.com/?cid=3905998182335149684,P0R 1C0
Burk's Falls,"Burk's Falls, ON, Canada",,,"https://maps.google.com/?q=Burk%27s+Falls,+ON+P0A,+Canada&ftid=0x4d2a23b1001a694d:0xd33cfc707c0f4cc2",/A
Burlington Public Library - Central Branch,"2331 New St, Burlington, ON L7R 1J4, Canada",(905) 639-3611,http://www.bpl.on.ca/,https://maps.google.com/?cid=7069537923792928824,L7R 1J4
Essex County Library - Leamington Branch,"1 John St, Leamington, ON N8H 1H1, Canada",(226) 946-1529 ext. 220,,https://maps.google.com/?cid=12307498924419620177,N8H 1H1
Caldwell First Nation,"14 Orange St, Leamington, ON N8H 1P5, Canada",(519) 322-1766,https://www.caldwellfirstnation.ca/,https://maps.google.com/?cid=9025944316879217788,N8H 1P5
Caledon Public Library - Margaret Dunn Valleywood Branch,"20 Snelcrest Dr, Caledon, ON L7C 1B5, Canada",(905) 843-0457,http://www.caledon.library.on.ca/,https://maps.google.com/?cid=5532488877373842941,L7C 1B5
Callander Public Library,"30 Catherine St W, Callander, ON P0H 1H0, Canada",(705) 752-2544,http://www.callanderpubliclibrary.ca/,https://maps.google.com/?cid=9963925574505887254,P0H 1H0
Idea Exchange | Queen's Square,"1 N Square, Cambridge, ON N1S 2K6, Canada",(519) 621-0460,http://ideaexchange.org/,https://maps.google.com/?cid=12366171753891440980,N1S 2K6
Carleton Place Public Library,"101 Beckwith St, Carleton Place, ON K7C 2T3, Canada",(613) 257-2702,http://www.carletonplacelibrary.ca/,https://maps.google.com/?cid=7379443390241387068,K7C 2T3
Hermon Public Library,"Carlow/Mayo, ON, Canada",(613) 332-2544,http://www.carlowmayo.ca/library.php,https://maps.google.com/?cid=6442616083572841225,/A
Casselman Public Library,"764 Brebeuf St, Casselman, ON K0A 1M0, Canada",(613) 764-5505,http://www.bibliocasselman.ca/fr/,https://maps.google.com/?cid=6983962191591975652,K0A 1M0
Cavan Monaghan Libraries - Bruce Johnston Branch,"2199 Davis Rd, Cavan-Monaghan, ON K9J 0G5, Canada",(705) 741-1253,http://www.cavanmonaghanlibraries.ca/,https://maps.google.com/?cid=7415000774047462103,K9J 0G5
Cavan Monaghan Libraries - Millbrook Branch,"1 Dufferin St, Millbrook, ON L0A 1G0, Canada",(705) 932-2919,http://www.cavanmonaghanlibraries.ca/,https://maps.google.com/?cid=13706886223398610202,L0A 1G0
Mindemoya Public Library,"6020 ON-542, Mindemoya, ON P0P 1S0, Canada",(705) 377-5334,,https://maps.google.com/?cid=17898523770775610002,P0P 1S0
Madoc Public Library,"20 Davidson St, Madoc, ON K0K 2K0, Canada",(613) 473-4456,http://madocpubliclibrary.ca/,https://maps.google.com/?cid=2901093263213146580,K0K 2K0
Champlain Township Public Library,"94 Main St E, Vankleek Hill, ON K0B 1R0, Canada",(613) 678-2216,http://www.bc-cl.ca/,https://maps.google.com/?cid=7970227609742006431,K0B 1R0
Champlain Memorial Library,"148 Elm St, Champlain, NY 12919, United States",(518) 298-8620,https://cefls.org/libraries/champlain/,https://maps.google.com/?cid=16325109838186560390,/A
Chapleau Public Library,"20 Pine St, Chapleau, ON P0M 1K0, Canada",(705) 864-0852,https://www.chapleaulibrary.com/,https://maps.google.com/?cid=1232382585201754182,P0M 1K0
Chippewa Resource Ctr,"Muncey, ON N0L 1Y0, Canada",(519) 289-2176,,https://maps.google.com/?cid=17001930689036862040,N0L 1Y0
Chippewas of Georgian Island,"Sutton West, ON L0E 1R0, Canada",(705) 437-4327,,https://maps.google.com/?cid=5775355025494761532,L0E 1R0
Kettle & Stony Point Library,"Kettle and Stony Point FN, 6265 Indian Ln, Lambton Shores, ON N0N 1J1, Canada",(519) 786-2955,https://kettlepoint.org/,https://maps.google.com/?cid=981419270686613312,N0N 1J1
Chippewas of Rama First Nation,"5884 Rama Rd, Orillia, ON L3V 6H6, Canada",(705) 325-3611,http://www.mnjikaning.ca/,https://maps.google.com/?cid=14423661087430410604,L3V 6H6
Rama Public Library,"Mnjikaning First Nation Indian Reserve No. 32, Ramara, ON, Canada",(705) 325-3611,http://www.mnjikaning.ca/culture/Pages/Library.aspx,https://maps.google.com/?cid=4132565119710245638,/A
Chatham-Kent Public Library - Chatham Branch,"120 Queen St, Chatham-Kent, ON N7M 2G6, Canada",(519) 354-2940,http://www.ckpl.ca/,https://maps.google.com/?cid=6370548120333978898,N7M 2G6
Clarence Rockland Public Library,"1525 Du Parc Ave #2, Rockland, ON K4K 1C3, Canada",(613) 446-5680,http://www.bpcrpl.ca/,https://maps.google.com/?cid=17161463214622556072,K4K 1C3
"Clarington Public Library, Courtice Branch","2950 Courtice Rd, Courtice, ON L1E 2H8, Canada",(905) 404-0707,http://www.clarington-library.on.ca/,https://maps.google.com/?cid=3574482912390021359,L1E 2H8
Oakville Public Library - Clearview Branch,"2860 Kingsway Dr, Oakville, ON L6J 6R3, Canada",(905) 815-2033,http://www.opl.on.ca/,https://maps.google.com/?cid=12897698068561304114,L6J 6R3
Clearview Public Library,"201 Huron, Stayner, ON L0M 1S0, Canada",(705) 428-3595,http://www.clearview.library.on.ca/client/en_US/clear/,https://maps.google.com/?cid=11373937070945343685,L0M 1S0
Cobalt Public Library,"30 Lang St, Cobalt, ON P0J 1C0, Canada",(705) 679-8120,,https://maps.google.com/?cid=13590794389670010897,P0J 1C0
Cobourg Public Library,"200 Ontario St, Cobourg, ON K9A 5P4, Canada",(905) 372-9271,http://www.cobourg.library.on.ca/,https://maps.google.com/?cid=7449808723786053924,K9A 5P4
Cochrane Public Library,"405 Railway St W, Cochrane, AB T4C 2E2, Canada",(403) 932-4353,http://www.cochranepubliclibrary.ca/,https://maps.google.com/?cid=1341498808772748082,/A
Collingwood Public Library,"55 Ste Marie St, Collingwood, ON L9Y 0W6, Canada",(705) 445-1571,http://www.collingwoodpubliclibrary.ca/,https://maps.google.com/?cid=6414059643189007864,L9Y 0W6
Cornwall Public Library,"45 Second St E, Cornwall, ON K6H 1Y3, Canada",(613) 932-4796,http://library.cornwall.on.ca/,https://maps.google.com/?cid=1105638463316481375,K6H 1Y3
Cramahe Township Public Library,"6 King St W, Colborne, ON K0K 1S0, Canada",(905) 355-3722,http://www.cramahelibrary.ca/,https://maps.google.com/?cid=320040834822532280,K0K 1S0
Cramahe Township Public Library,"1780 Percy St, Castleton, ON K0K 1M0, Canada",(905) 344-7320,http://www.cramahelibrary.ca/,https://maps.google.com/?cid=8367358997171052898,K0K 1M0
Curve Lake Public Library,"22 Winookeedaa St, Curve Lake, ON K0L 1R0, Canada",(705) 657-3217,https://www.curvelakefirstnation.ca/services-departments/curve-lake-first-nation-library/,https://maps.google.com/?cid=4485924158221086120,K0L 1R0
Curve Lake First Nation Cenotaph,"872 Mississauga St, Coe Hill, ON K0L 1P0, Canada",(705) 657-8045,http://www.curvelakefirstnation.ca/,https://maps.google.com/?cid=6456586684812873372,K0L 1P0
Curve Lake First Nation Indian Reserve No. 35,"Curve Lake First Nation Indian Reserve No. 35, ON, Canada",,,"https://maps.google.com/?q=Curve+Lake+First+Nation+Indian+Reserve+No.+35,+ON,+Canada&ftid=0x4cd4ce6f94f5c7e5:0x850d86b274bd10e1",/A
W. B. Lewis Public Library,"55 Rd Ridge, Deep River, ON K0J 1P0, Canada",(613) 584-4244,http://www.deepriverlibrary.ca/,https://maps.google.com/?cid=14689102396527267975,K0J 1P0
Delaware Nation Library,"22830 Centre Rd, Thamesville, ON N0P 2K0, Canada",(519) 692-3411,,https://maps.google.com/?cid=1396285727864497267,N0P 2K0
Deseronto Public Library,"358 Main St, Deseronto, ON K0K 1X0, Canada",(613) 396-2744,http://www.deserontopubliclibrary.ca/,https://maps.google.com/?cid=17626686941118434271,K0K 1X0
Central Library (Richmond Hill Public Library),"1 Atkinson St, Richmond Hill, ON L4C 0H5, Canada",(905) 884-9288,http://www.rhpl.ca/,https://maps.google.com/?cid=14206719897425837400,L4C 0H5
Dokis First Nation Library,"Monetville, ON P0M 2K0, Canada",(705) 763-2511,,https://maps.google.com/?cid=11860647714413050352,P0M 2K0
Vaudreuil-Dorion Library,"51 Jeannotte Rue, Vaudreuil-Dorion, QC J7V 6E6, Canada",(450) 455-3371,http://biblio.culture.ville.vaudreuil-dorion.qc.ca/,https://maps.google.com/?cid=10209221780564435803,/A
Douro-Dummer Public Library,"435 Douro 4th Line, Lakefield, ON K0L 2H0, Canada",(705) 652-8599,http://www.dourodummer.on.ca/,https://maps.google.com/?cid=15661887422779775061,K0L 2H0
Dryden Public Library,"36 Van Horne Ave, Dryden, ON P8N 2A7, Canada",(807) 223-1475,http://www.dryden.ca/city_services/library/,https://maps.google.com/?cid=9291138842923829464,P8N 2A7
Dubreuilville Public Library,"Magpie Rd, Dubreuilville, ON P0S 1B0, Canada",(705) 884-1435,http://www.dubreuilville.ca/article/hours-of-operation-1200.asp,https://maps.google.com/?cid=1096291330079473903,P0S 1B0
Ear Falls Library,"2 Willow Crescent, Ear Falls, ON P0V 1T0, Canada",(807) 222-3209,http://www.olsn.ca/earfallspl,https://maps.google.com/?cid=14392134090726239979,P0V 1T0
East Ferris Public Library,"1257 Village Rd, Astorville, ON P0H 1B0, Canada",(705) 752-2042,http://www.efpl.ca/,https://maps.google.com/?cid=17945707540617746715,P0H 1B0
East Gwillimbury Public Library - Holland Landing Branch,"19513 Yonge St, Holland Landing, ON L9N 1L8, Canada",(905) 836-6492,http://www.egpl.ca/,https://maps.google.com/?cid=1084269823386295685,L9N 1L8
East Gwillimbury Public Library,"19300 Centre St, Mount Albert, ON L0G 1M0, Canada",(905) 473-2472,http://www.egpl.ca/,https://maps.google.com/?cid=16866835985343079263,L0G 1M0
Hawkesbury Public Library,"550 Higginson St, Hawkesbury, ON K6A 1H1, Canada",(613) 632-0106,http://www.bibliotheque.hawkesbury.on.ca/,https://maps.google.com/?cid=3867057915226905573,K6A 1H1
Grand Valley Public Library,"4 Amaranth St E, Grand Valley, ON L9W 5L2, Canada",(519) 928-5622,http://www.grandvalley.org/,https://maps.google.com/?cid=12784173347320255579,L9W 5L2
Cardinal Public Library,"618 County Rd 2, Spencerville, ON K0E 1X0, Canada",(613) 657-3822,http://www.edcarlibrary.ca/,https://maps.google.com/?cid=14679716716499530961,K0E 1X0
Spencerville Library,"5 Henderson St, Spencerville, ON K0E 1X0, Canada",(613) 658-5575,http://www.edcarlibrary.ca/,https://maps.google.com/?cid=14840611479468048812,K0E 1X0
Aylmer Old Town Hall Library,"38 John St S, Aylmer, ON N5H 2C2, Canada",(519) 773-2439,,https://maps.google.com/?cid=2249920070038021031,N5H 2C2
Elizabethtown Township Public Library,"14 W Main St, Lyn, ON K0E 1M0, Canada",(613) 345-0033,,https://maps.google.com/?cid=6703155361390473517,K0E 1M0
Elliot Lake Public Library,"40 Hillside Dr S, Elliot Lake, ON P5A 1M7, Canada",(705) 848-2287,http://www.elliotlakelibrary.com/,https://maps.google.com/?cid=6810857544633583923,P5A 1M7
Emo Public Library,"56 Front St, Emo, ON P0W 1E0, Canada",(807) 482-2575,http://emo.ca/emo-public-library,https://maps.google.com/?cid=351938780326889348,P0W 1E0
Englehart Public Library,"71 4th Ave, Englehart, ON P0J 1H0, Canada",(705) 544-2100,http://www.englehartpubliclibrary.ca/,https://maps.google.com/?cid=12555564468749186422,P0J 1H0
Essa Public Library: Thornton Branch,"34 Robert St, Thornton, ON L0L 2N0, Canada",(705) 458-2549,http://www.essa.library.on.ca/,https://maps.google.com/?cid=11041992917491799358,L0L 2N0
Essa Public Library: Angus Branch,"8505 County Rd 10 #1, Angus, ON L0M 1B1, Canada",(705) 424-6531,http://www.essa.library.on.ca/,https://maps.google.com/?cid=7494024751061174888,L0M 1B1
Essex County Library - Tecumseh Branch,"13675 St Gregory's Rd, Windsor, ON N8N 3E4, Canada",(226) 946-1529 ext. 230,https://www.essexcountylibrary.ca/client/en_US/home,https://maps.google.com/?cid=14830326894363725548,N8N 3E4
Espanola Public Library,"245 Avery Dr, Espanola, ON P5E 1S4, Canada",(705) 869-2940,https://www.espanola.ca/library,https://maps.google.com/?cid=8704311134879199801,P5E 1S4
Library Municipal Fauquier-Strickland,"25 Grzela Rd, Fauquier, ON P0L 1G0, Canada",(705) 339-2522,http://bibliofauquier.weebly.com/,https://maps.google.com/?cid=5437969410515019072,P0L 1G0
Fort Erie Public Library - Crystal Ridge Branch,"89 Ridge Rd S, Ridgeway, ON L0S 1N0, Canada",(905) 894-1281,https://www.fepl.ca/,https://maps.google.com/?cid=14812217524224335956,L0S 1N0
Fort Frances Public Library Technology Centre,"601 Reid Ave, Fort Frances, ON P9A 0A2, Canada",(807) 274-9879,http://ffpltc.ca/,https://maps.google.com/?cid=10737859122599257134,P9A 0A2
Noëlville Public Library,"15 Dollard St, Noëlville, ON P0M 2N0, Canada",(705) 898-2965,http://www.frenchriver.ca/p/library,https://maps.google.com/?cid=5137270159747030352,P0M 2N0
Front of Yonge Public Library,"76 County Rd 5, Mallorytown, ON K0E 1R0, Canada",(613) 923-1790,http://www.library.frontofyonge.com/,https://maps.google.com/?cid=14644293677752767864,K0E 1R0
Trent Lakes,"Trent Lakes, ON, Canada",,,"https://maps.google.com/?q=Trent+Lakes,+ON,+Canada&ftid=0x4cd496bf40fdcb01:0xdad567747cb23767",/A
Gananoque Public Library,"100 Park St, Gananoque, ON K7G 2Y5, Canada",(613) 382-2436,http://www.gananoquelibrary.ca/,https://maps.google.com/?cid=15522693681065545082,K7G 2Y5
Garden River First Nation Public Library,"48 Syrette Lake Rd, Garden River, ON P6A 7A1, Canada",(705) 946-3933,http://www.gardenriver.ca/resource_centre/index.php,https://maps.google.com/?cid=13850290969269635919,P6A 7A1
Collingwood Public Library,"55 Ste Marie St, Collingwood, ON L9Y 0W6, Canada",(705) 445-1571,http://www.collingwoodpubliclibrary.ca/,https://maps.google.com/?cid=6414059643189007864,L9Y 0W6
Georgina Public Library - Keswick Branch,"90 Wexford Dr, Keswick, ON L4P 3P7, Canada",(905) 476-5762,http://www.georginalibrary.ca/,https://maps.google.com/?cid=4648897936027188253,L4P 3P7
Gore Bay Library,"15 Water St, Gore Bay, ON P0P 1H0, Canada",(705) 282-2221,http://www.gorebay.ca/discover/library/,https://maps.google.com/?cid=980654470386186018,P0P 1H0
Grand Valley Public Library,"4 Amaranth St E, Grand Valley, ON L9W 5L2, Canada",(519) 928-5622,http://www.grandvalley.org/,https://maps.google.com/?cid=12784173347320255579,L9W 5L2
Gravenhurst Public Library,"180 Sharpe St W, Gravenhurst, ON P1P 1J1, Canada",(705) 687-3382,http://www.gravenhurstlibrary.ca/,https://maps.google.com/?cid=14064102114845637710,P1P 1J1
Greater Madawaska Public Library,"12629 Lanark Rd, Calabogie, ON K0J 1H0, Canada",(613) 752-2317,http://www.greatermadawaska.com/library/about/,https://maps.google.com/?cid=9103810089063285703,K0J 1H0
Greater Sudbury Public Library - Main Library,"74 MacKenzie St, Greater Sudbury, ON P3C 4X8, Canada",(705) 673-1155,http://www.sudburylibraries.ca/,https://maps.google.com/?cid=8256536833408690135,P3C 4X8
New Sudbury Public Library (GSPL),"1346 Lasalle Blvd, Greater Sudbury, ON P3A 1Z6, Canada",(705) 688-3952,http://www.sudburylibraries.ca/,https://maps.google.com/?cid=2645312499257781322,P3A 1Z6
Greenstone Public Library,"405 2nd St W, Geraldton, ON, Canada",(807) 854-1490,http://www.olsn.ca/greenstone/,https://maps.google.com/?cid=8332300951333503340,/A
Grey Highlands Public Library - Flesherton,"101 Highland Dr, Flesherton, ON N0C 1E0, Canada",(519) 924-2241,http://www.greyhighlandspubliclibrary.com/,https://maps.google.com/?cid=11442007463803673754,N0C 1E0
Grimsby Public Library,"18 Carnegie Ln, Grimsby, ON L3M 1Y1, Canada",(905) 945-5142,https://www.grimsby.ca/library,https://maps.google.com/?cid=11945344766807271675,L3M 1Y1
Guelph Public Library - Scottsdale Branch,"650 Scottsdale Dr, Guelph, ON N1G 3M2, Canada",(519) 829-4402,https://www.guelphpl.ca/en/about-us/scottsdale.aspx,https://maps.google.com/?cid=14699071495994876979,N1G 3M2
Haldimand County Public Library-Dunnville branch,"317 Chestnut St, Dunnville, ON N1A 2H4, Canada",(289) 674-0400,https://www.haldimandcounty.ca/haldimand-county-public-library/,https://maps.google.com/?cid=10688804768343970584,N1A 2H4
Haliburton County Public Library - Minden Hills Branch,"174 Bobcaygeon Rd, Minden, ON K0M 2K0, Canada",(705) 286-2491,,https://maps.google.com/?cid=2488748386696693061,K0M 2K0
Halton Hills Public Library,"17 River St, Acton, ON L7J 1C2, Canada",(905) 873-2681,http://www.hhpl.on.ca/,https://maps.google.com/?cid=498690582951960005,L7J 1C2
Halton Hills Public Library,"9 Church St, Georgetown, ON L7G 2A3, Canada",(905) 873-2681,http://www.hhpl.on.ca/,https://maps.google.com/?cid=3162548839271616353,L7G 2A3
Hamilton Public Library - Sherwood Branch,"467 Upper Ottawa St, Hamilton, ON L8T 3T3, Canada",(905) 546-3249,http://www.hpl.ca/branches/sherwood-branch,https://maps.google.com/?cid=14302130177705414650,L8T 3T3
Hanover Public Library,"451 10th Ave, Hanover, ON N4N 2P1, Canada",(519) 364-1420,http://hanoverlibrary.ca/,https://maps.google.com/?cid=6886396905500629234,N4N 2P1
Hastings Highlands Public Library,"33011 Hwy 62, Maynooth, ON K0L 2S0, Canada",(613) 338-2262,https://www.hastingshighlandslibrary.ca/,https://maps.google.com/?cid=17804646871512446366,K0L 2S0
Havelock-Belmont-Methuen Public Library,"13 QUEBEC, Havelock, ON K0L 1Z0, Canada",(705) 778-2621,http://www.hbmlibrary.on.ca/,https://maps.google.com/?cid=16652111553036570347,K0L 1Z0
Hawkesbury Public Library,"550 Higginson St, Hawkesbury, ON K6A 1H1, Canada",(613) 632-0106,http://www.bibliotheque.hawkesbury.on.ca/,https://maps.google.com/?cid=3867057915226905573,K6A 1H1
"HEAD, CLARA & MARIA PUBLIC LIBRARY","15 Township Hall Rd, Stonecliffe, ON K0J 2K0, Canada",(613) 586-1950,http://hcmpubliclibrary.ca/,https://maps.google.com/?cid=4881907226404867066,K0J 2K0
Bibliothèque Municipale De Hearst,"801 George St, Hearst, ON P0L 1N0, Canada",(705) 372-2843,http://www.bibliohearst.on.ca/,https://maps.google.com/?cid=11366564286616684486,P0L 1N0
Hilton Union Public Library,"3085 Marks St, Hilton Beach, ON P0R 1G0, Canada",(705) 255-3520,,https://maps.google.com/?cid=15609775085357499919,P0R 1G0
Hornepayne Library,"68 Front St, Hornepayne, ON P0M 1Z0, Canada",(807) 868-2332,http://www.olsn.ca/hornepayne/,https://maps.google.com/?cid=11764572620647416582,P0M 1Z0
Huntsville Public Library,"7 Minerva St E, Huntsville, ON P1H 1W4, Canada",(705) 789-5232,http://www.huntsvillelibrary.ca/,https://maps.google.com/?cid=2275948858610670928,P1H 1W4
Huron County Library - Howick Branch,"45088 Harriston Rd, Fordwich, ON N0G 1V0, Canada",(519) 335-6899,https://www.huroncounty.ca/library/,https://maps.google.com/?cid=4829286592601999176,N0G 1V0
Huron Shore Public Library,"10 Main St, Huron Shores, ON, Canada",,,https://maps.google.com/?cid=15419974854409832504,/A
Ignace Public Library,"36 Main St, Ignace, ON P0T 1T0, Canada",(807) 934-2280,http://www.olsn.ca/ignace/,https://maps.google.com/?cid=1791637654835986131,P0T 1T0
Innisfil Public Library,"967 Innisfil Beach Rd, Innisfil, ON L9S 1V3, Canada",(705) 431-7410,http://www.innisfil.library.on.ca/,https://maps.google.com/?cid=2017625339194011510,L9S 1V3
Iroquois Falls Public Library,"725 Synagogue Ave, Iroquois Falls, ON P0K 1G0, Canada",(705) 232-5722,http://iroquoisfalls.olsn.ca/,https://maps.google.com/?cid=14549483688614436315,P0K 1G0
Lindsay - Kawartha Lakes Public Library,"190 Kent St W, Lindsay, ON K9V 2Y6, Canada",(705) 324-9411 ext. 1263,https://www.kawarthalakeslibrary.ca/,https://maps.google.com/?cid=15107068931254890825,K9V 2Y6
Kanhiote Public Library,"1658 York Rd, Deseronto, ON K0K 1X0, Canada",(613) 967-6264,http://www.kanhiote.ca/,https://maps.google.com/?cid=12732736971911231489,K0K 1X0
Bibliothèque Publique de Kapuskasing Public Library,"24 Mundy Ave, Kapuskasing, ON P5N 1P9, Canada",(705) 335-3363,http://kapuskasing.olsn.ca/,https://maps.google.com/?cid=543621005621114604,P5N 1P9
Kearney Public Library,"8 Main Street, Kearney, ON P0A 1M0, Canada",(705) 636-5849,https://townofkearney.ca/our-community/kearney-and-area-public-library/,https://maps.google.com/?cid=3987648258568826645,P0A 1M0
Kenora Public Library (Main Branch),"24 Main St S, Kenora, ON P9N 1S7, Canada",(807) 467-2081,http://www.kenorapubliclibrary.org/,https://maps.google.com/?cid=15093907800782683428,P9N 1S7
Keewatin Branch Kenora Public,"221 Main St, Keewatin, ON P0X 1C0, Canada",(807) 547-2145,http://www.kenorapubliclibrary.org/,https://maps.google.com/?cid=988402515051923285,P0X 1C0
Killaloe & District Public Library,"1 John St, Killaloe, ON K0J 2A0, Canada",(613) 757-2211,http://killaloelibrary.ca/,https://maps.google.com/?cid=1390639954838759117,K0J 2A0
King City Public Library,"1970 King Rd, King City, ON L7B 1K9, Canada",(905) 833-5101,http://www.kinglibrary.ca/,https://maps.google.com/?cid=16756950145398882574,L7B 1K9
Kingston Frontenac Public Library,"130 Johnson St, Kingston, ON K7L 1X8, Canada",(613) 549-8888,https://www.kfpl.ca/,https://maps.google.com/?cid=9651694984285219633,K7L 1X8
Teck Centennial Library,"10 Kirkland St E, Kirkland Lake, ON P2N 3K2, Canada",(705) 567-7966,http://www.olsn.ca/kirklandlakepl/,https://maps.google.com/?cid=17842407410519396779,P2N 3K2
Kitchener Public Library,"85 Queen St N, Kitchener, ON N2H 2H1, Canada",(519) 743-0271,http://www.kpl.org/,https://maps.google.com/?cid=4680485546178627807,N2H 2H1
Bibliotheque public La Nation Limoges Branch,"205 Limoges Rd, Limoges, ON K0A 2M0, Canada",(613) 443-1630,http://www.nationmunbiblio.ca/,https://maps.google.com/?cid=4176607126023514582,K0A 2M0
Lake of Bays Township Libraries,"1014 Dwight Beach Rd, Dwight, ON P0A 1H0, Canada",(705) 635-3319,http://www.lakeofbayslibrary.ca/,https://maps.google.com/?cid=13978417469521323088,P0A 1H0
Port Franks Library,"9997 Port Franks Rd, Port Franks, ON N0M 2L0, Canada",(519) 243-2820,http://www.lclibrary.ca/,https://maps.google.com/?cid=17781704425790076647,N0M 2L0
Lanark Highlands Public Library,"75 George St, Lanark, ON K0G 1K0, Canada",(613) 259-3068,https://www.lanarklibrary.ca/,https://maps.google.com/?cid=7888887560380634357,K0G 1K0
Larder Lake,"Larder Lake, ON P0K 1L0, Canada",,,"https://maps.google.com/?q=Larder+Lake,+ON+P0K+1L0,+Canada&ftid=0x4d2404aaf2d457a1:0x5e3c16ebe2da84a2",P0K 1L0
McGarry Library,"27th St, McGarry, ON P0K 1X0, Canada",,http://www.mcgarry.ca/,https://maps.google.com/?cid=759289702457362721,P0K 1X0
Larder Lake Fire Department,"59 Commissioner St, Larder Lake, ON P0K 1L0, Canada",(705) 643-2158,https://larderlake.ca/?page_id=144,https://maps.google.com/?cid=15937631002463229330,P0K 1L0
Cobalt Public Library,"30 Lang St, Cobalt, ON P0J 1C0, Canada",(705) 679-8120,,https://maps.google.com/?cid=13590794389670010897,P0J 1C0
Laurentian Hills Library,"34465 Hwy 17, Deep River, ON K0J 1P0, Canada",(613) 584-2714,http://library.laurentianhills.ca/,https://maps.google.com/?cid=9366194407106875170,K0J 1P0
Chalk River Library,"15 Main St, Chalk River, ON K0J 1J0, Canada",(613) 589-2966,http://library.laurentianhills.ca/index.html,https://maps.google.com/?cid=1547116303078234873,K0J 1J0
Leeds and the Thousand Islands Public Library - Lansdowne Branch,"1 Jessie St, Lansdowne, ON K0E 1L0, Canada",(613) 659-3885,http://ltipl.net/,https://maps.google.com/?cid=2446238803071376803,K0E 1L0
County of Lennox & Addington Libraries - Amherstview Branch,"322 Amherst Dr, Amherstview, ON K7N 1S9, Canada",(613) 389-6006,http://www.countylibrary.ca/,https://maps.google.com/?cid=14549037185500117755,K7N 1S9
Lincoln Public Library - Fleming Branch,"5020 Serena Dr, Beamsville, ON L0R 1B0, Canada",(905) 563-7014,https://lincoln.library.on.ca/,https://maps.google.com/?cid=9996441690273572019,L0R 1B0
"London Public Library, Central Branch","251 Dundas St, London, ON N6A 6H9, Canada",(519) 661-4600,http://www.londonpubliclibrary.ca/,https://maps.google.com/?cid=5533009099870384696,N6A 6H9
Argyle Community Library,"11767 ON-522, Port Loring, ON P0H 1Y0, Canada",(705) 472-8170 ext. 8595,http://www.argylecommunitylibrary.ca/,https://maps.google.com/?cid=9053166934108474932,P0H 1Y0
M'Chigeeng First Nation Library,"Lakeview Dr, M'Chigeeng, ON P0P 1G0, Canada",(705) 377-5540,https://www.mchigeeng.ca/,https://maps.google.com/?cid=10205777459312070437,P0P 1G0
Magnetawan First Nation,"10 hwy 529, Britt, ON P0G 1A0, Canada",(705) 383-2477,http://www.magnetawanfirstnation.com/,https://maps.google.com/?cid=7798911369236157682,P0G 1A0
Magnetawan Public Library,"Magnetawan, ON P0A 1P0, Canada",(705) 387-4411,,https://maps.google.com/?cid=5844935444485546930,P0A 1P0
Marathon Public Library,"22 Peninsula Rd, Marathon, ON P0T 2E0, Canada",(807) 229-0740,http://marathon.olsn.ca/,https://maps.google.com/?cid=12678739352087564825,P0T 2E0
Marmora Public Library,"37 FORSYTH, Marmora, ON K0K 2M0, Canada",(613) 472-3122,http://www.marmoralibrary.ca/,https://maps.google.com/?cid=9466692315929149426,K0K 2M0
Manitouwadge Public Library,"Manitou Rd, Manitouwadge, ON P0T 2C0, Canada",(807) 826-3913,http://manitouwadge.olsn.ca/,https://maps.google.com/?cid=2429029779074835392,P0T 2C0
Markham Village Library,"6031 Hwy 7, Markham, ON L3P 3A7, Canada",(905) 513-7977,http://www.markham.ca/wps/portal/Markham/RecreationCulture/Library/AboutTheLibrary/BranchesAndHours/MarkhamVillage/,https://maps.google.com/?cid=7177346074086608417,L3P 3A7
Markstay-Warren Public Library - Markstay branch,"7 Pioneer St E, Markstay, ON P0M 2G0, Canada",(705) 599-3009,http://markstaywarren.olsn.ca/,https://maps.google.com/?cid=14504545858281964125,P0M 2G0
Mattawa Public Library,"101 Manson Lane, Mattawa, WA 99349, United States",(509) 932-5507,http://www.ncrl.org/,https://maps.google.com/?cid=733100413429435567,/A
McGarry Library,"27th St, McGarry, ON P0K 1X0, Canada",,http://www.mcgarry.ca/,https://maps.google.com/?cid=759289702457362721,P0K 1X0
Township Of McGarry,"27 Webster St, Virginiatown, ON P0K 1X0, Canada",(705) 634-2145,,https://maps.google.com/?cid=668817121320329470,P0K 1X0
McKellar Township Public Library,"701 Hwy 124, McKellar, ON P0G 1C0, Canada",(705) 389-2611,http://mckellarpubliclibrary.ca/,https://maps.google.com/?cid=645506496219474331,P0G 1C0
Arnprior Public Library,"21 Madawaska St, Arnprior, ON K7S 1R6, Canada",(613) 623-2279,http://www.arnpriorlibrary.ca/,https://maps.google.com/?cid=11113606406668660537,K7S 1R6
Meaford Public Library,"15 Trowbridge St W, Meaford, ON N4L 1V4, Canada",(519) 538-1060 ext. 1123,https://www.meaford.ca/en/explore-play/library.aspx,https://maps.google.com/?cid=16993037899967891779,N4L 1V4
Merrickville Public Library,"446 Main St W, Merrickville, ON K0G 1N0, Canada",(613) 269-3326,https://merrickvillelibrary.ca/,https://maps.google.com/?cid=2201584790858686422,K0G 1N0
Michipicoten First Nation Band Office,"107 Hiawatha Dr, Wawa, ON P0S 1K0, Canada",(705) 856-1993,http://www.michipicoten.com/,https://maps.google.com/?cid=12047800108832787418,P0S 1K0
Wawa Public Library,"40 Broadway Ave, Wawa, ON P0S 1K0, Canada",(705) 856-2244 ext. 290,http://wawa.olsn.ca/,https://maps.google.com/?cid=9131202471234391805,P0S 1K0
Middlesex County Library Office,"34 B Frank St, Strathroy, ON N7G 2R4, Canada",(519) 245-8237,https://library.middlesex.ca/,https://maps.google.com/?cid=16718167021499358190,N7G 2R4
Midland Public Library,"320 King St, Midland, ON L4R 3M6, Canada",(705) 526-4216,http://www.midlandlibrary.com/,https://maps.google.com/?cid=1009124534646795447,L4R 3M6
Milton Public Library - Main Library,"1010 Main St E, Milton, ON L9T 6H7, Canada",(905) 875-2665,http://www.mpl.on.ca/,https://maps.google.com/?cid=14373004190645611843,L9T 6H7
Blind River Public Library,"8 Woodward Ave, Blind River, ON, Canada",(705) 356-7616,http://www.olsn.ca/blindriverlibrary/,https://maps.google.com/?cid=17588866045778943836,/A
MNCFN Public Library,"2789 Mississauga Rd, Hagersville, ON N0A 1H0, Canada",(905) 768-5686,http://mncfn.ca/,https://maps.google.com/?cid=17442272708835628333,N0A 1H0
Scugog Memorial Public Library,"231 Water St, Port Perry, ON L9L 1A8, Canada",(905) 985-7686,http://www.scugoglibrary.ca/,https://maps.google.com/?cid=12183549333116164928,L9L 1A8
Central Library,"301 Burnhamthorpe Rd W, Mississauga, ON L5B 3Y3, Canada",(905) 615-3500,http://www.mississauga.ca/portal/residents/centrallibrary,https://maps.google.com/?cid=11970376234581786969,L5B 3Y3
"Mississippi Mills Public Library, Almonte Branch","155 High St, Almonte, ON K0A 1A0, Canada",(613) 256-1037,http://missmillslibrary.com/,https://maps.google.com/?cid=16742946945208168466,K0A 1A0
Mississippi Mills Public Library - Pakenham Branch,"128 MacFarlane St, Pakenham, ON K0A 2X0, Canada",(613) 624-5306,,https://maps.google.com/?cid=12075638669534544868,K0A 2X0
Mono Town Hall,"347209 Mono Centre Rd, Mono, ON L9W 6S3, Canada",(519) 941-3599,http://www.townofmono.com/,https://maps.google.com/?cid=671089699123687233,L9W 6S3
Mono,"Mono, ON, Canada",,,"https://maps.google.com/?q=Mono,+ON,+Canada&ftid=0x882a55bbf3de23d7:0x3ada5af229b47375",/A
Bibliothèque Publique De Moonbeam,"53 St-Aubin Avenue, Basement, St Aubin Ave, Moonbeam, ON P0L 1V0, Canada",(705) 367-2462,http://www.biblio.moonbeam.ca/,https://maps.google.com/?cid=3224785600922727419,P0L 1V0
Muskoka Lakes Public Library,"69 Joseph St, Port Carling, ON P0B 1J0, Canada",(705) 765-5650,http://www.muskoka.com/library,https://maps.google.com/?cid=9902523626753427170,P0B 1J0
New Tecumseth Public Libraries,"17 Victoria St E, Alliston, ON L9R 1T3, Canada",(705) 435-5651,http://www.ntpl.ca/,https://maps.google.com/?cid=18045226131436021288,L9R 1T3
Newmarket Public Library,"438 Park Ave, Newmarket, ON L3Y 1W1, Canada",(905) 953-5110,http://www.newmarketpl.ca/,https://maps.google.com/?cid=1995333502505584528,L3Y 1W1
Niagara Falls Public Library,"4848 Victoria Ave, Niagara Falls, ON L2E 4C5, Canada",(905) 356-8080,https://my.nflibrary.ca/,https://maps.google.com/?cid=16160646865080851231,L2E 4C5
Niagara-on-the-Lake Public Library,"10 Anderson Ln, Niagara-on-the-Lake, ON L0S 1J0, Canada",(905) 468-2023,http://www.notlpubliclibrary.org/,https://maps.google.com/?cid=13200887707078971758,L0S 1J0
Nipigon Public Library,"52 Front St, Nipigon, ON P0T 2J0, Canada",(807) 887-3142,http://www.nipigon.net/,https://maps.google.com/?cid=17160749690071634905,P0T 2J0
Norfolk County Public Library - Simcoe Branch,"46 Colborne St S, Simcoe, ON N3Y 4H3, Canada",(519) 426-3506 ext. 5,,https://maps.google.com/?cid=1610078492137406787,N3Y 4H3
North Bay Public Library,"271 Worthington St E, North Bay, ON P1B 1H1, Canada",(705) 474-4830,http://library.cityofnorthbay.ca/,https://maps.google.com/?cid=340642583765526147,P1B 1H1
"North Grenville Public Library, Burritts Rapids Branch","1 Grenville St, Burritts Rapids, ON K0G 1B0, Canada",(613) 269-3636,https://ngpl.ca/,https://maps.google.com/?cid=13442832704967359153,K0G 1B0
"North Grenville Public Library, Kemptville Branch","1 Water St, Kemptville, ON K0G 1J0, Canada",(613) 258-4711,http://www.ngpl.ca/,https://maps.google.com/?cid=1564120297692818660,K0G 1J0
North Kawartha Public Library - Apsley Branch,"175 Burleigh St, Apsley, ON K0L 1A0, Canada",(705) 656-4333,http://www.northkawarthalibrary.com/,https://maps.google.com/?cid=11008250142176316883,K0L 1A0
North Kawartha Public Library - Woodview Branch,"66 Northeys Bay Rd, Woodview, ON K0L 3E0, Canada",(705) 654-1071,http://www.northkawarthalibrary.com/,https://maps.google.com/?cid=11124608177152469733,K0L 3E0
"North Perth Public Library, Atwood Branch","218A Main St, Atwood, ON N0G 1B0, Canada",(519) 356-2455,https://www.northperth.ca/en/explore-and-discover/north-perth-public-library.aspx,https://maps.google.com/?cid=6733066591264103287,N0G 1B0
Little Current Public Library,"50 MEREDITH, Little Current, ON P0P 1K0, Canada",(705) 368-2444,http://www.olsn.ca/nemi/,https://maps.google.com/?cid=17170236786729550111,P0P 1K0
Oakville Public Library - Glen Abbey Depot,"1415 Third Line, Oakville, ON L6M 3G2, Canada",(905) 815-2039,https://www.opl.ca/,https://maps.google.com/?cid=2377866270283597617,L6M 3G2
Oakville Public Library - Central Branch,"120 Navy St, Oakville, ON L6J 2Z4, Canada",(905) 815-2042,https://www.opl.ca/,https://maps.google.com/?cid=196524999697597007,L6J 2Z4
Rosslyn Library,"3405 Rosslyn Rd, Rosslyn, ON P7K 0P7, Canada",(807) 939-2312,https://www.oliverpaipoonge.ca/living/library,https://maps.google.com/?cid=3439796634517690188,P7K 0P7
Oliver Township Public Library,"Canada, 4569 Oliver Rd, Murillo, ON P0T 2G0, Canada",(807) 935-2729,,https://maps.google.com/?cid=4592574322037417016,P0T 2G0
Oneida Nation of the Thames,"2212 Elm Ave, Southwold, ON N0L 2G0, Canada",(519) 652-3977,https://oneida.on.ca/,https://maps.google.com/?cid=6138026392502248079,N0L 2G0
Orangeville Public Library - Mill St.,"1 Mill St, Orangeville, ON L9W 2M2, Canada",(519) 941-0610,http://www.orangeville.ca/orangeville-public-library,https://maps.google.com/?cid=1838160908618269213,L9W 2M2
Orangeville Public Library - Alder St.,"275 Alder St, Orangeville, ON L9W 5H6, Canada",(519) 941-0610,http://www.orangeville.ca/orangeville-public-library,https://maps.google.com/?cid=10871696917835839543,L9W 5H6
Orillia Public Library,"36 Mississaga St W, Orillia, ON L3V 3A6, Canada",(705) 325-2338,http://www.orilliapubliclibrary.ca/,https://maps.google.com/?cid=11045384468978578414,L3V 3A6
Oshawa Public Libraries - Northview Branch,"250 Beatrice St E, Oshawa, ON L1G 7T6, Canada",(905) 579-6111 ext. 5871,http://www.oshlib.ca/,https://maps.google.com/?cid=18013260135657395320,L1G 7T6
Otonabee South Monaghan Public Library,"3252 County Rd 2, Keene, ON K0L 2G0, Canada",(705) 295-6814,http://www.otosoumon.library.on.ca/,https://maps.google.com/?cid=13717439917024994459,K0L 2G0
Ottawa Public Library - Main,"120 Metcalfe St, Ottawa, ON K1P 5M2, Canada",(613) 580-2940,https://biblioottawalibrary.ca/en,https://maps.google.com/?cid=16656352347640204071,K1P 5M2
Owen Sound,"Owen Sound, ON, Canada",,http://www.owensound.ca/,"https://maps.google.com/?q=Owen+Sound,+ON,+Canada&ftid=0x8829fb8785542311:0x89c8339c87314f03",/A
Tillsonburg Public Library,"2 Library Ln, Tillsonburg, ON N4G 2S7, Canada",(519) 842-5571,https://www.ocl.net/Your-OCL/Locations-Hours/Tillsonburg,https://maps.google.com/?cid=9276702613950753709,N4G 2S7
Parry Sound Public Library,"29 Mary St, Parry Sound, ON P2A 1E3, Canada",(705) 746-9601,http://www.parrysoundlibrary.ca/,https://maps.google.com/?cid=16032154407628176503,P2A 1E3
Pelham Public Library,"43 Pelham Town Square, Fonthill, ON L0S 1E0, Canada",(905) 892-6443,https://pelhamlibrary.on.ca/,https://maps.google.com/?cid=17454128819450331162,L0S 1E0
Pelham Public Library - Maple Acre branch,"781 Canboro Rd, Fenwick, ON L0S 1C0, Canada",(905) 892-5226,https://pelhamlibrary.on.ca/,https://maps.google.com/?cid=16380730834836671872,L0S 1C0
Pembroke Public Library,"237 Victoria St, Pembroke, ON K8A 4K5, Canada",(613) 732-8844,https://pembrokelibrary.ca/,https://maps.google.com/?cid=16632844099034338516,K8A 4K5
Penetanguishene Public Library,"24 Simcoe St, Penetanguishene, ON L9M 1R6, Canada",(705) 549-7164,http://www.penetanguishene.library.on.ca/,https://maps.google.com/?cid=471413448543907196,L9M 1R6
Perry Township Public Library,"25 Joseph St, Emsdale, ON P0A 1J0, Canada",(705) 636-5454,http://www.olsn.ca/perrylibrary,https://maps.google.com/?cid=672570439721207213,P0A 1J0
Perth & District Union Public Library,"30 Herriott St, Perth, ON K7H 1T2, Canada",(613) 267-1224,http://www.perthunionlibrary.ca/,https://maps.google.com/?cid=13792325799216656290,K7H 1T2
Perth East Public Library,"19 Mill St E, Milverton, ON N0K 1M0, Canada",(519) 595-8395,http://www.pertheast.library.on.ca/,https://maps.google.com/?cid=11999564642913445309,N0K 1M0
Petawawa Public Library,"16 Civic Centre Rd, Petawawa, ON K8H 3H5, Canada",(613) 687-2227,http://petawawapubliclibrary.ca/2017/wordpress-4/wordpress/,https://maps.google.com/?cid=17328079938802046435,K8H 3H5
Peterborough Public Library,"345 Aylmer St N, Peterborough, ON K9H 3V7, Canada",(705) 745-5382,http://www.ptbolibrary.ca/,https://maps.google.com/?cid=3228248612807480620,K9H 3V7
Phelps Library and STEAM Lab Makerspace,"8 Banta St, Phelps, NY 14532, United States",(315) 548-3120,http://www.phelpslibrary.org/,https://maps.google.com/?cid=4310080613918835229,/A
E Ellis Phelps Library,"4495 Town Hall Rd, Phelps, WI 54554, United States",(715) 545-2887,,https://maps.google.com/?cid=9871113421342897325,/A
Pickering Public Library,"1 The Esplanade S, Pickering, ON L1V 6K7, Canada",(905) 831-6265,http://www.picnet.org/,https://maps.google.com/?cid=12133088049083071430,L1V 6K7
Port Colborne Public Library,"310 King St, Port Colborne, ON L3K 4H2, Canada",(905) 834-6512,http://portcolbornelibrary.org/,https://maps.google.com/?cid=6338351403932332201,L3K 4H2
Port Hope Public Library,"31 Queen St, Port Hope, ON L1A 2Y8, Canada",(905) 885-4712,http://www.porthopepubliclibrary.ca/,https://maps.google.com/?cid=6799277108851669490,L1A 2Y8
Powassan,"Powassan, ON P0H 1Z0, Canada",,,"https://maps.google.com/?q=Powassan,+ON+P0H+1Z0,+Canada&ftid=0x4d29a3499c680999:0x80da9a9fb139450c",P0H 1Z0
Prescott Library,"360 Dibble St W, Prescott, ON K0E 1T0, Canada",(613) 925-4340,http://www.prescott.ca/en/play-here/Library.asp,https://maps.google.com/?cid=2912201983032806532,K0E 1T0
Wellington Public Library and Archives,"261 Wellington Main St, Wellington, ON K0K 3L0, Canada",(613) 399-2023,http://peclibrary.org/,https://maps.google.com/?cid=14987754394749571821,K0K 3L0
Prince Township Public Library,"3042 Second Line W, Sault Ste. Marie, ON P6A 6K4, Canada",(705) 779-3653,https://www.ptpl.ca/,https://maps.google.com/?cid=8076720456050249181,P6A 6K4
Quinte West Public Library,"7 Creswell Dr, Trenton, ON K8V 6S7, Canada",(613) 394-3381,http://www.library.quintewest.com/,https://maps.google.com/?cid=5936046010310082350,K8V 6S7
Quinte West Public Library,"22 Trent St N, Frankford, ON K0K 2C0, Canada",(613) 398-7572,https://www.library.quintewest.ca/en/index.asp,https://maps.google.com/?cid=9100226466757882183,K0K 2C0
Rainy River First Nations Library,"Ontario P0W 1A0, Canada",,,https://maps.google.com/?cid=12490668816387507875,/A
Rainy River Public Library,"334 4th St, Rainy River, ON P0W 1L0, Canada",(807) 852-3375,https://www.rainyriverlibrary.com/,https://maps.google.com/?cid=7758867377559168219,P0W 1L0
Ramara Township Public Library,"5482 ON-12, Ramara, ON L3V 0S2, Canada",(705) 325-5776,http://www.ramarapubliclibrary.org/,https://maps.google.com/?cid=12002047378758099558,L3V 0S2
Ramara Township Public Library-Brechin Branch,"3242 Ramara Road 47, Brechin, ON L0K 1B0, Canada",(705) 484-0476,http://www.ramarapubliclibrary.org/,https://maps.google.com/?cid=15460995460473768962,L0K 1B0
Red Rock Public Library,"42 Salls St, Red Rock, ON P0T 2P0, Canada",(807) 886-2558,http://redrock.olsn.ca/,https://maps.google.com/?cid=472971518756218440,P0T 2P0
Red Lake Public Library,"117 Howey St, Red Lake, ON P0V 2M0, Canada",(807) 727-2230,http://www.olsn.ca/redlake/,https://maps.google.com/?cid=17930755895639771543,P0V 2M0
Region of Waterloo Library Headquarters,"2017 Nafziger, Baden, ON N3A 3M6, Canada",(519) 575-4590,https://www.rwlibrary.ca/en/your-library/locations-and-hours.aspx,https://maps.google.com/?cid=5288514364518286491,N3A 3M6
Renfrew Public Library,"13 Railway Ave, Renfrew, ON K7V 3A9, Canada",(613) 432-8151,http://www.renfrew.ca/library-welcome.cfm,https://maps.google.com/?cid=14595796967940513034,K7V 3A9
Central Library (Richmond Hill Public Library),"1 Atkinson St, Richmond Hill, ON L4C 0H5, Canada",(905) 884-9288,http://www.rhpl.ca/,https://maps.google.com/?cid=14206719897425837400,L4C 0H5
Rideau Lakes Public Library,"2792 ON-15, Portland, ON K0G 1V0, Canada",,http://www.rideaulakeslibrary.ca/,https://maps.google.com/?cid=9262547102030677087,K0G 1V0
Rideau Lakes Public Library,"26 Halladay St, Elgin, ON K0G 1E0, Canada",(613) 359-5315,http://www.rlpl.ca/,https://maps.google.com/?cid=8984952313564784289,K0G 1E0
Township of Russell Public Library - Russell Branch / Bibliothèque publique du canton de Russell - Succursale Russell,"1053 Concession St, Russell, ON K4R 1E1, Canada",(613) 445-5331,https://russellbiblio.com/,https://maps.google.com/?cid=6769234017263253301,K4R 1E1
Succursale Embrun - Bibliothèque publique du canton de Russell // Township of Russell Public Library,"1215 St Augustin Rd, Embrun, ON K0A 1W1, Canada",(613) 443-3636,https://russellbiblio.com/?lang=fr,https://maps.google.com/?cid=14116430285396506353,K0A 1W1
Town of Spanish Public Library,"8 Trunk Rd Spanish, Spanish, ON P0P 2A0, Canada",(705) 844-2555,http://www.townofspanish.com/residents/public-library/,https://maps.google.com/?cid=15758942477643549849,P0P 2A0
Saugeen First Nation Works Department,"822 French Bay Rd, Sauble Beach, ON N0H 2G0, Canada",(519) 797-3934,http://saugeenfirstnation.ca/departments.php,https://maps.google.com/?cid=11267777394701041741,N0H 2G0
Massey & Township Public Library,"185 ST GROVE, Massey, ON, Canada",(705) 865-2641,http://masseylibrary.com/,https://maps.google.com/?cid=8640940085963088788,/A
Sault Ste. Marie,"Sault Ste. Marie, ON, Canada",,http://www.city.sault-ste-marie.on.ca/,"https://maps.google.com/?q=Sault+Ste.+Marie,+ON,+Canada&ftid=0x4d36311508818c7b:0xc55b0eb513db21cd",/A
Schreiber Public Library,"314 Scotia St, Schreiber, ON P0T 2S0, Canada",(807) 824-2477,http://schreiberlibrary.ca/,https://maps.google.com/?cid=16621579281367121099,P0T 2S0
Scugog Memorial Public Library,"231 Water St, Port Perry, ON L9L 1A8, Canada",(905) 985-7686,http://www.scugoglibrary.ca/,https://maps.google.com/?cid=12183549333116164928,L9L 1A8
Seguin Public Libraries - Humphrey Library,"15 Humphrey Dr, Parry Sound, ON P2A 2W8, Canada",(705) 732-4526,http://www.seguinpubliclibraries.ca/,https://maps.google.com/?cid=6942617279784798024,P2A 2W8
Serpent River First Nation,"195 Village Rd E, Cutler, ON P0P 1B0, Canada",(705) 844-2418,http://www.serpentriverfn.ca/,https://maps.google.com/?cid=8829312405676841943,P0P 1B0
Severn Township Public Library,"31 Coldwater Rd, Coldwater, ON L0K 1E0, Canada",(705) 686-3601,http://www.coldwater.library.on.ca/,https://maps.google.com/?cid=572181949319031265,L0K 1E0
Shelburne Public Library,"201 Owen Sound St, Shelburne, ON L9V 3L2, Canada",(519) 925-2168,http://www.shelburnelibrary.ca/,https://maps.google.com/?cid=3134699043918807682,L9V 3L2
Sioux Lookout Public Library,"21 5th Ave, Sioux Lookout, ON P8T 1B3, Canada",(807) 737-3660,http://www.slpl.on.ca/,https://maps.google.com/?cid=11026372603438598353,P8T 1B3
Sioux Narrows Public Library,"Sioux Narrows, ON P0X 1N0, Canada",(807) 226-5204,http://www.snnf.ca/municipal-government/services/library/,https://maps.google.com/?cid=12432686439986076101,P0X 1N0
Six Nations Public Library,"1679 Chiefswood Rd, Ohsweken, ON N0A 1M0, Canada",(519) 445-2954,http://snpl.ca/,https://maps.google.com/?cid=14654622390953488797,N0A 1M0
Clearview Public Library,"201 Huron, Stayner, ON L0M 1S0, Canada",(705) 428-3595,http://www.clearview.library.on.ca/client/en_US/clear/,https://maps.google.com/?cid=11373937070945343685,L0M 1S0
Selwyn Public Library,"836 Charles St, Bridgenorth, ON K0L 1H0, Canada",(705) 292-5065,http://www.mypubliclibrary.ca/,https://maps.google.com/?cid=11116278903910412463,K0L 1H0
Smiths Falls Public Library,"81 Beckwith St N, Smiths Falls, ON K7A 2B9, Canada",(613) 283-2911,http://www.smithsfallslibrary.ca/,https://maps.google.com/?cid=11662631520126389490,K7A 2B9
Smooth Rock Falls Public Library,"120 Ross Rd, Smooth Rock Falls, ON P0L 2B0, Canada",(705) 338-2318,,https://maps.google.com/?cid=4323557715529830762,P0L 2B0
South Algonquin Public Libraries,"Highway 60, Madawaska, ON, Canada",(613) 637-1099,,https://maps.google.com/?cid=11988743953728598967,/A
Township of South Algonquin Public Library,"33 Medical Centre Rd., Whitney, ON K0J 2M0, Canada",(613) 637-5471,http://www.olsn.ca/southalgonquin,https://maps.google.com/?cid=16758007257901546980,K0J 2M0
South River Machar Union Public Library,"63 Marie St, South River, ON P0A 1X0, Canada",(705) 386-0222,https://southriver.olsn.ca/,https://maps.google.com/?cid=14456678719770073577,P0A 1X0
Southgate Ruth Hargrave Memorial Library - Dundalk,"80 Proton St N, Dundalk, ON N0C 1B0, Canada",(519) 923-3248,http://www.southgate-library.com/,https://maps.google.com/?cid=13879662601489663689,N0C 1B0
Town of Spanish Public Library,"8 Trunk Rd Spanish, Spanish, ON P0P 2A0, Canada",(705) 844-2555,http://www.townofspanish.com/residents/public-library/,https://maps.google.com/?cid=15758942477643549849,P0P 2A0
Springwater Public Library - Midhurst Branch,"12 Finlay Mill Rd, Midhurst, ON L0L 1X0, Canada",(705) 737-5650,http://springwater.library.on.ca/,https://maps.google.com/?cid=14152635247659229086,L0L 1X0
St. Catharines Public Library - Central Library Branch,"54 Church St, St. Catharines, ON L2R 7K2, Canada",(905) 688-6103,http://www.stcatharines.library.on.ca/index.php/locations#central,https://maps.google.com/?cid=14766216391785443967,L2R 7K2
St Charles Public Library,"1 S 6th Ave, St. Charles, IL 60174, United States",(630) 584-0076,http://www.stcharleslibrary.org/,https://maps.google.com/?cid=6700309869977884676,/A
Township of St. Joseph Public Library,"1240 Richards St, Richards Landing, ON P0R 1J0, Canada",(705) 246-2353,https://www.facebook.com/SJTPublicLibrary/?ref=bookmarks,https://maps.google.com/?cid=9980081080552538566,P0R 1J0
St. Marys Public Library,"15 Church St N, St. Marys, ON, Canada",(519) 284-3346,http://www.stmaryspubliclibrary.ca/,https://maps.google.com/?cid=16752932317027484007,/A
St. Thomas Public Library,"153 Curtis St, St Thomas, ON N5P 3Z7, Canada",(519) 631-6050,http://stthomaspubliclibrary.ca/,https://maps.google.com/?cid=18158861280601158456,N5P 3Z7
Stirling-Rawdon Public Library,"43 W Front St, Stirling, ON K0K 3E0, Canada",(613) 395-2837,http://stirlinglibrary.com/,https://maps.google.com/?cid=3592784458923728689,K0K 3E0
"Stormont, Dundas and Glengarry United Counties","Stormont, Dundas and Glengarry United Counties, ON, Canada",,,"https://maps.google.com/?q=Stormont,+Dundas+and+Glengarry+United+Counties,+ON,+Canada&ftid=0x4cd1b6ca6e512ab5:0xf60ac6b284969b9d",/A
Stratford Public Library,"19 St Andrew St, Stratford, ON N5A 1A2, Canada",(519) 271-0220,https://www.stratford.library.on.ca/,https://maps.google.com/?cid=469697218034753983,N5A 1A2
Greater Sudbury Public Library - Main Library,"74 MacKenzie St, Greater Sudbury, ON P3C 4X8, Canada",(705) 673-1155,http://www.sudburylibraries.ca/,https://maps.google.com/?cid=8256536833408690135,P3C 4X8
New Sudbury Public Library (GSPL),"1346 Lasalle Blvd, Greater Sudbury, ON P3A 1Z6, Canada",(705) 688-3952,http://www.sudburylibraries.ca/,https://maps.google.com/?cid=2645312499257781322,P3A 1Z6
Sundridge-Strong Union Public Library,"110 Main St, Sundridge, ON P0A 1Z0, Canada",(705) 384-7311,http://sundridge.olsn.ca/,https://maps.google.com/?cid=3570353422647381776,P0A 1Z0
Victoria Harbour Branch Library,"145 Albert St, Victoria Harbour, ON L0K 2A0, Canada",(705) 534-3581,http://www.tay.library.on.ca/,https://maps.google.com/?cid=2553831558514183401,L0K 2A0
Tehkummah Township Library,"Manitowaning, ON P0P 1N0, Canada",(705) 859-3301,,https://maps.google.com/?cid=5093833782347314667,P0P 1N0
Temagami Public Library,"7 Lakeshore Dr, Temagami, ON P0H 2H0, Canada",(705) 569-2945,http://www.temagami.library.on.ca/,https://maps.google.com/?cid=18257018525046992631,P0H 2H0
Haileybury Branch Library,"545 Lakeshore Rd S, Haileybury, ON P0J 1K0, Canada",(705) 672-3707,http://temisklibrary.com/en/,https://maps.google.com/?cid=17082444894230677877,P0J 1K0
New Liskeard Public Library,"50 Whitewood Ave W, Temiskaming Shores, ON P0J 1P0, Canada",(705) 647-4215,http://www.temisklibrary.com/,https://maps.google.com/?cid=13806848664554236956,P0J 1P0
Terrace Bay Public Library,"13 Selkirk Ave, Terrace Bay, ON P0T 2W0, Canada",(807) 825-3315,http://terracebay.library.on.ca/,https://maps.google.com/?cid=11698327097788721198,P0T 2W0
Thessalon First Nation Library,"Thessalon, ON P0R 1L0, Canada",(705) 842-1258,https://www.thessalonfirstnation.ca/library2.html,https://maps.google.com/?cid=13494068045048152427,P0R 1L0
Thessalon Public Library,"187 Main St, Thessalon, ON P0R 1L0, Canada",(705) 842-2306,,https://maps.google.com/?cid=931521865613317946,P0R 1L0
Thorold Public Library,"14 Ormond St N, Thorold, ON L2V 1Y8, Canada",(905) 227-2581,http://www.thoroldpubliclibrary.ca/,https://maps.google.com/?cid=8645066885251302486,L2V 1Y8
Thunder Bay Public Library: Brodie Resource Library,"216 Brodie St S, Thunder Bay, ON P7E 1C2, Canada",(807) 345-8275,http://www.tbpl.ca/,https://maps.google.com/?cid=1912153542971576821,P7E 1C2
Timmins Public Library,"320 2nd Ave, Timmins, ON P4N 8A4, Canada",(705) 360-2623,http://tpl.timmins.ca/,https://maps.google.com/?cid=2689417058660967887,P4N 8A4
Toronto Public Library - Humber Bay Branch,"200 Park Lawn Rd, Etobicoke, ON M8Y 3J1, Canada",(416) 394-5300,https://www.torontopubliclibrary.ca/humberbay/,https://maps.google.com/?cid=11490349858505858417,M8Y 3J1
Campbellford Branch Public Library,"98 Bridge St E, Campbellford, ON K0L 1L0, Canada",(705) 653-3611,http://www.trenthillslibrary.ca/campbellford/,https://maps.google.com/?cid=107809309822049571,K0L 1L0
Tudor & Cashel Township,"371 Weslemkoon Lake Rd, Gilmour, ON K0L 1W0, Canada",(613) 474-2583,http://www.tudorandcashel.com/,https://maps.google.com/?cid=10975201223014650752,K0L 1W0
Tweed Public Library,"230 Metcalf St, Tweed, ON K0K 3J0, Canada",(613) 478-1066,http://www.tweedlibrary.ca/,https://maps.google.com/?cid=2868872826315881023,K0K 3J0
Tyendinaga Township Public Library,"852 Melrose Rd, Shannonville, ON K0K 3A0, Canada",(613) 967-0606,http://www.ttpl.ca/,https://maps.google.com/?cid=9156359588391319093,K0K 3A0
Uxbridge Public Library,"9 Toronto St S, Uxbridge, ON L9P 1P7, Canada",(905) 852-9747,http://www.uxlib.com/,https://maps.google.com/?cid=7559772145708909116,L9P 1P7
Val Rita Harty Municipalité de,"2 De L'Église Ave, Val Rita, ON P0L 2G0, Canada",(705) 335-6146,http://www.valharty.ca/,https://maps.google.com/?cid=2576003225895509395,P0L 2G0
Civic Centre Resource Library,"2191 Major MacKenzie Dr W, Vaughan, ON L6A 4W2, Canada",(905) 653-7323,http://www.vaughanpl.info/,https://maps.google.com/?cid=14528015357602192653,L6A 4W2
Toronto Public Library - Toronto Reference Library,"789 Yonge St, Toronto, ON M4W 2G8, Canada",(416) 395-5577,https://www.torontopubliclibrary.ca/torontoreferencelibrary/,https://maps.google.com/?cid=5835472276115395348,M4W 2G8
Wahta Mohawk Territory,"Wahta Mohawk Territory, Kilworthy, ON, Canada",,,"https://maps.google.com/?q=Wahta+Mohawk+Territory,+Kilworthy,+ON,+Canada&ftid=0x4d2a5fa3b3225dd7:0x904f3f06ce46ba8a",/A
Wahta Mohawks Administration and Community Centre,"2664 Muskoka District Road 38, Bala, ON P0C 1A0, Canada",(705) 762-2354,http://www.wahtamohawks.ca/,https://maps.google.com/?cid=9722637293540748621,P0C 1A0
Wainfleet Township Public Library,"31909 Park St, Wainfleet, ON L0S 1V0, Canada",(905) 899-1277,http://wainfleetlibrary.ca/,https://maps.google.com/?cid=7492182299702308948,L0S 1V0
Wainfleet Township Public Library,"31909 Park St, Wainfleet, ON L0S 1V0, Canada",(905) 899-1277,http://wainfleetlibrary.ca,https://maps.google.com/?cid=18403628450377872402,L0S 1V0
Wasaga Beach Public Library,"120 Glenwood Dr, Wasaga Beach, ON L9Z 2K5, Canada",(705) 429-5481,http://www.wasagabeach.library.on.ca/,https://maps.google.com/?cid=5326406984106522609,L9Z 2K5
Parry Sound Public Library,"29 Mary St, Parry Sound, ON P2A 1E3, Canada",(705) 746-9601,http://www.parrysoundlibrary.ca/,https://maps.google.com/?cid=16032154407628176503,P2A 1E3
Waterloo Public Library - Main Library,"35 Albert St, Waterloo, ON N2L 5E2, Canada",(519) 886-1310,http://www.wpl.ca/,https://maps.google.com/?cid=3968843145341711327,N2L 5E2
Region of Waterloo Library Headquarters,"2017 Nafziger, Baden, ON N3A 3M6, Canada",(519) 575-4590,https://www.rwlibrary.ca/en/your-library/locations-and-hours.aspx,https://maps.google.com/?cid=5288514364518286491,N3A 3M6
Welland Public Library - Seaway Mall Branch,"800 Niagara St, Welland, ON L3C 1M3, Canada",(289) 820-7472,http://www.wellandlibrary.ca/,https://maps.google.com/?cid=16991037475312480308,L3C 1M3
Elora Public Library,"144 Geddes St, Elora, ON N0B 1S0, Canada",(519) 846-0190,https://www.wellington.ca/en/library.aspx,https://maps.google.com/?cid=2416029766154753480,N0B 1S0
West Grey Public Library - Durham Branch,"453 Garafraxa St S, Durham, ON N0G 1R0, Canada",(519) 369-2107,http://www.westgreylibrary.com/,https://maps.google.com/?cid=10546025624060939159,N0G 1R0
West Lincoln Public Library - Smithville branch,"177 West St, Smithville, ON L0R 2A0, Canada",(905) 957-3756,http://www.westlincolnlibrary.ca/,https://maps.google.com/?cid=8901236293518306537,L0R 2A0
West Nipissing Public Library Main Branch,"225 Holditch St, Sturgeon Falls, ON P2B 1T1, Canada",(705) 753-2620,https://www.wnpl.ca/,https://maps.google.com/?cid=7496104585170794771,P2B 1T1
West Perth Public Library,"105 St Andrew St, Mitchell, ON N0K 1N0, Canada",(519) 348-9234,http://www.westperth.library.on.ca/,https://maps.google.com/?cid=18432895734403327900,N0K 1N0
The Westport Library,"20 Jesup Rd, Westport, CT 06880, United States",(203) 291-4800,http://www.westportlibrary.org/,https://maps.google.com/?cid=1430378215302675095,/A
Whitby Public Library - Central Library,"405 Dundas St W, Whitby, ON L1N 6A1, Canada",(905) 668-6531,http://www.whitbylibrary.ca/contact,https://maps.google.com/?cid=3037689695678779327,L1N 6A1
Whitchurch-Stouffville Public Library,"2 Park Dr, Whitchurch-Stouffville, ON L4A 4K1, Canada",(905) 642-7323,http://www.wsplibrary.ca/,https://maps.google.com/?cid=15887627241882666646,L4A 4K1
Whitefish River First Nation Public Library,"46b Bay of Islands Rd, Birch Island, ON P0P 1A0, Canada",(705) 285-1888,http://www.whitefishriver.ca/,https://maps.google.com/?cid=3199718079790988745,P0P 1A0
Johnson County Public Library - White River Branch,"1664 Library Blvd, Greenwood, IN 46142, United States",(317) 885-1330,http://www.pageafterpage.org/,https://maps.google.com/?cid=13296188202831073729,/A
White River Public Library,"123 Superior St, White River, ON P0M 3G0, Canada",(807) 822-1113,http://www.whiteriverlibrary.com/,https://maps.google.com/?cid=18140189068859819161,P0M 3G0
Whitestone - Hagerman Memorial Public Library,"2206 Hwy 124, Dunchurch, ON P0A 1G0, Canada",(705) 389-3311,http://whitestone.olsn.ca/,https://maps.google.com/?cid=10824932464548150781,P0A 1G0
Whitewater Region Public Library,"2022 Foresters Falls Rd, Cobden, ON K0J 1K0, Canada",(613) 646-2543,https://www.whitewaterregion.ca/library,https://maps.google.com/?cid=5805737745966615230,K0J 1K0
Wikwemikong Public Library,"Henry St, Wikwemikong, ON P0P 2J0, Canada",(705) 859-2692,http://www.olsn.ca/wpl/,https://maps.google.com/?cid=16306027538369565128,P0P 2J0
Windsor Public Library Central Branch,"Paul Martin Sr. Building, 185 Ouellette Avenue, Windsor, ON N9A 5S8, Canada",,http://www.windsorpubliclibrary.com/,https://maps.google.com/?cid=5470129269825626766,N9A 5S8
Grimsby Public Library,"18 Carnegie Ln, Grimsby, ON L3M 1Y1, Canada",(905) 945-5142,https://www.grimsby.ca/library,https://maps.google.com/?cid=11945344766807271675,L3M 1Y1
Woodstock Public Library,"445 Hunter St, Woodstock, ON N4S 4G7, Canada",(519) 539-4801,http://www.mywpl.ca/,https://maps.google.com/?cid=9780301498907982376,N4S 4G7
